{"spkid": "20657084", "covariance": {"epoch": "2458598.5", "elements": [{"units": null, "title": "eccentricity", "value": ".3798510076985246", "name": "e", "sigma": 4.10764989599371e-07, "label": "e"}, {"name": "q", "sigma": 6.49689481966204e-07, "units": "au", "title": "perihelion distance", "value": ".9969638592550752", "label": "q"}, {"label": "tp", "units": "TDB", "title": "time of perihelion passage", "value": "2458606.435382823772", "name": "tp", "sigma": 0.000308014416503354}, {"label": "node", "title": "longitude of the ascending node", "value": "3.103649231535802", "units": "deg", "sigma": 1.67336996103565e-05, "name": "om"}, {"units": "deg", "title": "argument of perihelion", "value": "27.00752661431118", "sigma": 7.68307523096219e-05, "name": "w", "label": "peri"}, {"title": "inclination", "value": "23.65368984771783", "units": "deg", "name": "i", "sigma": 1.9175472515488e-05, "label": "i"}], "data": [["1.687278766805711E-13", "-2.668573338631994E-13", "4.266339669660519E-11", "1.917707997757142E-12", "6.61231963856877E-12", "3.545455734626365E-12"], ["-2.668573338631994E-13", "4.220964229775149E-13", "-6.781429790489341E-11", "-3.030887256236818E-12", "-1.053669458939019E-11", "-5.607166170294743E-12"], ["4.266339669660519E-11", "-6.781429790489341E-11", "9.487288077390177E-8", "-1.144927015116632E-9", "2.306532764450688E-8", "-3.707007626820837E-10"], ["1.917707997757142E-12", "-3.030887256236818E-12", "-1.144927015116632E-9", "2.800167026496465E-10", "-5.46044421291649E-10", "2.639304749581041E-10"], ["6.61231963856877E-12", "-1.053669458939019E-11", "2.306532764450688E-8", "-5.46044421291649E-10", "5.902964500462468E-9", "-3.656793912472308E-10"], ["3.545455734626365E-12", "-5.607166170294743E-12", "-3.707007626820837E-10", "2.639304749581041E-10", "-3.656793912472308E-10", "3.67698746192236E-10"]], "labels": ["e", "q", "tp", "node", "peri", "i"]}, "elements": [{"name": "e", "sigma": "4.1068E-7", "title": "eccentricity", "value": ".3799384085973279", "units": null, "label": "e"}, {"label": "a", "units": "au", "title": "semi-major axis", "value": "1.607594860738311", "sigma": "1.9948E-8", "name": "a"}, {"label": "q", "name": "q", "sigma": "6.4957E-7", "units": "au", "value": ".9968078276801542", "title": "perihelion distance"}, {"units": "deg", "title": "inclination; angle with respect to x-y ecliptic plane", "value": "23.65376877343015", "sigma": "1.9175E-5", "name": "i", "label": "i"}, {"label": "node", "sigma": "1.6745E-5", "name": "om", "units": "deg", "value": "3.075129855288023", "title": "longitude of the ascending node"}, {"label": "peri", "title": "argument of perihelion", "value": "27.01903627117692", "units": "deg", "name": "w", "sigma": "7.6818E-5"}, {"name": "ma", "sigma": ".00015526", "title": "mean anomaly", "value": "174.3048051438272", "units": "deg", "label": "M"}, {"title": "time of perihelion passage", "value": "2460840.029109432905", "units": "TDB", "name": "tp", "sigma": ".00031886", "label": "tp"}, {"sigma": "1.3857E-5", "name": "per", "units": "d", "title": "sidereal orbital period", "value": "744.497666011418", "label": "period"}, {"label": "n", "sigma": "9.0003E-9", "name": "n", "value": ".4835475199387379", "title": "mean motion", "units": "deg/d"}, {"units": "au", "title": "aphelion distance", "value": "2.218381893796468", "sigma": "2.7527E-8", "name": "ad", "label": "Q"}], "epoch": "2461200.5"}